NORAD_CAT_ID,OBJECT_NAME,OBJECT_TYPE,EPOCH,MEAN_MOTION,ECCENTRICITY,INCLINATION,RA_OF_ASC_NODE,ARG_OF_PERICENTER,MEAN_ANOMALY,BSTAR,MEAN_MOTION_DOT,MEAN_MOTION_DDOT,TLE_LINE0,TLE_LINE1,TLE_LINE2,SEMIMAJOR_AXIS,PERIOD,APOGEE,PERIGEE,DECAYED
50176.0,STARLINK-3293,PAYLOAD,2022-01-29 14:00:01,15.73199664,0.0002048,53.2181,157.4581,42.6186,144.8609,0.0001409999999999,0.00019213,0.0,0 STARLINK-3293,1 50176U 21125W   22029.58334491  .00019213  00000-0  14100-3 0  9997,2 50176  53.2181 157.4581 0002048  42.6186 144.8609 15.73199664  6844,6727.896,91.533,351.139,348.3830000000001,0.0
50176.0,STARLINK-3293,PAYLOAD,2022-01-29 22:00:00,15.73268243,0.000202,53.2179,155.8088,38.2711,238.1412,-0.0004707,-0.0006636,0.0,0 STARLINK-3293,1 50176U 21125W   22029.91667824 -.00066360  00000-0 -47070-3 0  9992,2 50176  53.2179 155.8088 0002020  38.2711 238.1412 15.73268243  3701,6727.701,91.529,350.925,348.207,0.0
50176.0,STARLINK-3293,PAYLOAD,2022-01-30 14:00:01,15.73178615,0.0001871,53.2171,152.5102,32.9042,61.4281,1.3112e-05,1.218e-05,0.0,0 STARLINK-3293,1 50176U 21125W   22030.58334491  .00001218  00000-0  13112-4 0  9998,2 50176  53.2171 152.5102 0001871  32.9042  61.4281 15.73178615  6993,6727.956,91.534,351.08,348.56199999999984,0.0
50176.0,STARLINK-3293,PAYLOAD,2022-01-30 22:00:00,15.73245609,0.0001995,53.2166,150.8608,32.3908,150.846,-0.00067313,-0.00094231,0.0,0 STARLINK-3293,1 50176U 21125W   22030.91667824 -.00094231  00000-0 -67313-3 0  9994,2 50176  53.2166 150.8608 0001995  32.3908 150.8460 15.73245609  3695,6727.765,91.531,350.972,348.288,0.0
50176.0,STARLINK-3293,PAYLOAD,2022-01-31 14:00:01,15.73216751,0.0002225,53.2169,147.5619,36.0182,325.1275,-7.912300000000001e-05,-0.0001172,0.0,0 STARLINK-3293,1 50176U 21125W   22031.58335648 -.00011720  00000-0 -79123-4 0  9999,2 50176  53.2169 147.5619 0002225  36.0182 325.1275 15.73216751  7157,6727.847,91.532,351.209,348.215,0.0
50176.0,STARLINK-3293,PAYLOAD,2022-01-31 22:00:01,15.73214053,0.0002164,53.2167,145.9122,31.1182,58.9782,-0.00014691,-0.00021202,0.0,0 STARLINK-3293,1 50176U 21125W   22031.91668981 -.00021202  00000-0 -14691-3 0  9999,2 50176  53.2167 145.9122 0002164  31.1182  58.9782 15.73214053  3696,6727.855,91.532,351.176,348.264,0.0
50176.0,STARLINK-3293,PAYLOAD,2022-02-01 14:00:01,15.73179933,0.0002095,53.2168,142.6141,25.0965,242.8741,0.00014795,0.00020176,0.0,0 STARLINK-3293,1 50176U 21125W   22032.58335648  .00020176  00000-0  14795-3 0  9996,2 50176  53.2168 142.6141 0002095  25.0965 242.8741 15.73179933  3670,6727.9519999999975,91.534,351.227,348.408,0.0
50176.0,STARLINK-3293,PAYLOAD,2022-02-01 22:00:00,15.73220301,0.0002074,53.2168,140.9642,21.3358,335.4757,-0.00060513,-0.00084778,0.0,0 STARLINK-3293,1 50176U 21125W   22032.91667824 -.00084778  00000-0 -60513-3 0  9996,2 50176  53.2168 140.9642 0002074  21.3358 335.4757 15.73220301  7361,6727.837,91.532,351.098,348.307,0.0
50176.0,STARLINK-3293,PAYLOAD,2022-02-02 14:00:01,15.73130007,0.000237,53.2174,137.6659,27.8249,146.7769,0.00023488,0.00032374,0.0,0 STARLINK-3293,1 50176U 21125W   22033.58334491  .00032374  00000-0  23488-3 0  9994,2 50176  53.2174 137.6659 0002370  27.8249 146.7769 15.73130007  7479,6728.095,91.537,351.55400000000014,348.365,0.0
50176.0,STARLINK-3293,PAYLOAD,2022-02-02 22:00:00,15.73176677,0.0002349,53.217,136.016,27.1977,236.2565,1.1208e-06,-4.64e-06,0.0,0 STARLINK-3293,1 50176U 21125W   22033.91667824 -.00000464  00000-0  11208-5 0  9995,2 50176  53.2170 136.0160 0002349  27.1977 236.2565 15.73176677  3706,6727.962,91.535,351.407,348.246,0.0
50176.0,STARLINK-3293,PAYLOAD,2022-02-03 06:00:00,15.73183868,0.0002242,53.217,134.359,30.7934,321.5766,0.00055556,0.00078027,0.0,0 STARLINK-3293,1 50176U 21125W   22034.25001157  .00078027  00000-0  55556-3 0  9995,2 50176  53.2170 134.3590 0002242  30.7934 321.5766 15.73183868  7579,6727.941,91.534,351.315,348.298,0.0
50176.0,STARLINK-3293,PAYLOAD,2022-02-03 14:00:01,15.7322318,0.0002481,53.2168,132.7182,28.1737,53.1299,0.00023247,0.00032165,0.0,0 STARLINK-3293,1 50176U 21125W   22034.58334491  .00032165  00000-0  23247-3 0  9996,2 50176  53.2168 132.7182 0002481  28.1737  53.1299 15.73223180  3715,6727.829000000002,91.532,351.36300000000006,348.025,0.0
50176.0,STARLINK-3293,PAYLOAD,2022-02-03 22:00:01,15.73307735,0.0002431,53.2167,131.0676,25.1358,145.2282,-0.00056785,-0.00079942,0.0,0 STARLINK-3293,1 50176U 21125W   22034.91668981 -.00079942  00000-0 -56785-3 0  9996,2 50176  53.2167 131.0676 0002431  25.1358 145.2282 15.73307735  7689,6727.5880000000025,91.527,351.089,347.8180000000001,0.0
50176.0,STARLINK-3293,PAYLOAD,2022-02-04 06:00:00,15.73257758,0.0002257,53.217,129.4166,25.1863,234.1435,0.00059052,0.00083293,0.0,0 STARLINK-3293,1 50176U 21125W   22035.25001157  .00083293  00000-0  59052-3 0  9992,2 50176  53.2170 129.4166 0002257  25.1863 234.1435 15.73257758  7738,6727.731,91.53,351.11400000000015,348.077,0.0
50176.0,STARLINK-3293,PAYLOAD,2022-02-04 14:00:01,15.73326511,0.0002485,53.217,127.769,20.1778,328.2384,-0.00090224,-0.0012607,0.0,0 STARLINK-3293,1 50176U 21125W   22035.58335648 -.00126070  00000-0 -90224-3 0  9992,2 50176  53.2170 127.7690 0002485  20.1778 328.2384 15.73326511  7781,6727.535,91.526,351.071,347.728,0.0
50176.0,STARLINK-3293,PAYLOAD,2022-02-04 22:00:00,15.73270607,0.0002444,53.2166,126.1183,16.2092,61.1682,-0.0012551,-0.00173737,0.0,0 STARLINK-3293,1 50176U 21125W   22035.91667824 -.00173737  00000-0 -12551-2 0  9991,2 50176  53.2166 126.1183 0002444  16.2092  61.1682 15.73270607  3690,6727.694,91.529,351.20300000000015,347.915,0.0
50176.0,STARLINK-3293,PAYLOAD,2022-02-05 06:00:00,15.73168691,0.0002483,53.2167,124.4679,29.0612,137.2771,-0.00024611,-0.00034977,0.0,0 STARLINK-3293,1 50176U 21125W   22036.25001157 -.00034977  00000-0 -24611-3 0  9993,2 50176  53.2167 124.4679 0002483  29.0612 137.2771 15.73168691  7894,6727.984,91.535,351.52,348.17900000000014,0.0
50176.0,STARLINK-3293,PAYLOAD,2022-02-05 14:00:01,15.7313768,0.0002799,53.2163,122.8206,27.8663,227.3468,0.00026197,0.0003621,0.0,0 STARLINK-3293,1 50176U 21125W   22036.58334491  .00036210  00000-0  26197-3 0  9990,2 50176  53.2163 122.8206 0002799  27.8663 227.3468 15.73137680  3681,6728.073,91.537,351.821,348.055,0.0
50176.0,STARLINK-3293,PAYLOAD,2022-02-05 22:00:01,15.7315726,0.0002566,53.2164,121.1662,25.1383,319.0105,-0.00031521,-0.00044553,0.0,0 STARLINK-3293,1 50176U 21125W   22036.91668981 -.00044553  00000-0 -31521-3 0  9999,2 50176  53.2164 121.1662 0002566  25.1383 319.0105 15.73157260  7993,6728.017,91.536,351.608,348.156,0.0
50176.0,STARLINK-3293,PAYLOAD,2022-02-06 14:00:01,15.73086927,0.0002595,53.2174,117.8542,18.7067,143.1144,-0.0031606,-0.0042081,0.0,0 STARLINK-3293,1 50176U 21125W   22037.58335648 -.00420810  00000-0 -31606-2 0  9991,2 50176  53.2174 117.8542 0002595  18.7067 143.1144 15.73086927  8106,6728.218000000003,91.54,351.829,348.337,0.0
50176.0,STARLINK-3293,PAYLOAD,2022-02-06 20:00:01,15.729072400000002,0.0002493,53.2173,116.6129,17.6706,120.5894,-0.0051641,-0.00662792,0.0,0 STARLINK-3293,1 50176U 21125W   22037.83334491 -.00662792  00000-0 -51641-2 0  9992,2 50176  53.2173 116.6129 0002493  17.6706 120.5894 15.72907240  8142,6728.73,91.55,352.272,348.918,0.0
50176.0,STARLINK-3293,PAYLOAD,2022-02-06 22:00:00,15.72792794,0.0002331,53.2176,116.2003,20.2529,230.1318,-0.0052226,-0.00666661,0.0,0 STARLINK-3293,1 50176U 21125W   22037.91667824 -.00666661  00000-0 -52226-2 0  9999,2 50176  53.2176 116.2003 0002331  20.2529 230.1318 15.72792794  3685,6729.056,91.557,352.49,349.353,0.0
50176.0,STARLINK-3293,PAYLOAD,2022-02-07 14:00:01,15.71858869,0.0002613,53.2175,112.9082,5.0164,61.107,-0.0054182,-0.00664763,0.0,0 STARLINK-3293,1 50176U 21125W   22038.58334491 -.00664763  00000-0 -54182-2 0  9998,2 50176  53.2175 112.9082 0002613   5.0164  61.1070 15.71858869  3696,6731.722,91.611,355.346,351.82800000000015,0.0
50176.0,STARLINK-3293,PAYLOAD,2022-02-07 22:00:00,15.71395841,0.0002594,53.2174,111.2614,342.048,171.1043,-0.0055862,-0.00671471,0.0,0 STARLINK-3293,1 50176U 21125W   22038.91667824 -.00671471  00000-0 -55862-2 0  9994,2 50176  53.2174 111.2614 0002594 342.0480 171.1043 15.71395841  8313,6733.044,91.638,356.655,353.162,0.0
50176.0,STARLINK-3293,PAYLOAD,2022-02-08 06:00:00,15.70669595,0.0005536,53.2169,109.6195,281.425,318.3368,-0.0026247,-0.00319595,0.0,0 STARLINK-3293,1 50176U 21125W   22039.25001157 -.00319595  00000-0 -26247-2 0  9994,2 50176  53.2169 109.6195 0005536 281.4250 318.3368 15.70669595  8361,6735.119000000002,91.681,360.713,353.256,0.0
50176.0,STARLINK-3293,PAYLOAD,2022-02-08 14:00:01,15.70338753,0.0003681,53.2173,107.9787,282.5611,43.03,-0.0042723,-0.0050147,0.0,0 STARLINK-3293,1 50176U 21125W   22039.58334491 -.00501470  00000-0 -42723-2 0  9992,2 50176  53.2173 107.9787 0003681 282.5611  43.0300 15.70338753  8419,6736.065,91.7,360.41,355.451,0.0
50176.0,STARLINK-3293,PAYLOAD,2022-02-08 22:00:01,15.6990125,0.0002247,53.2175,106.3349,299.101,111.8884,-0.0047348999999999,-0.00542701,0.0,0 STARLINK-3293,1 50176U 21125W   22039.91668981 -.00542701  00000-0 -47349-2 0  9994,2 50176  53.2175 106.3349 0002247 299.1010 111.8884 15.69901250  8464,6737.316999999999,91.726,360.695,357.668,0.0
50176.0,STARLINK-3293,PAYLOAD,2022-02-09 06:00:00,15.69528569,0.0001406,53.2177,104.6919,355.5951,140.0667,-0.0060179,-0.00668669,0.0,0 STARLINK-3293,1 50176U 21125W   22040.25001157 -.00668669  00000-0 -60179-2 0  9997,2 50176  53.2177 104.6919 0001406 355.5951 140.0667 15.69528569  8525,6738.3830000000025,91.747,361.195,359.301,0.0
50176.0,STARLINK-3293,PAYLOAD,2022-02-09 13:03:59,15.69649969,0.0001406,53.2163,103.2553,297.7353,62.3523,-0.0027205,-0.00317111,0.0,0 STARLINK-3293,1 50176U 21125W   22040.54444026 -.00317111  00000-0 -27205-2 0  9991,2 50176  53.2163 103.2553 0001406 297.7353  62.3523 15.69649969 11701,6738.036,91.74,360.848,358.95300000000015,0.0
